start=new Date('2022-04-25T00:00:00.000Z').valueOf();
sats=[{"ECCENTRICITY":"0.00012320","SITE":"AFETR","MEAN_MOTION":"15.73201483","LAUNCH_DATE":"2022-03-19","EPHEMERIS_TYPE":"0","REV_AT_EPOCH":"701","DECAY_DATE":null,"OBJECT_ID":"2022-029AQ","TLE_LINE2":"2 52126  53.2152 322.7516 0001232 118.7270  79.6283 15.73201483  7013","RA_OF_ASC_NODE":"322.7516","TLE_LINE1":"1 52126U 22029AQ  22114.83334491 -.00053214  00000-0 -37711-3 0  9995","FILE":"3414343","OBJECT_TYPE":"PAYLOAD","SEMIMAJOR_AXIS":"6727.891","PERIOD":"91.533","TIME_SYSTEM":"UTC","CLASSIFICATION_TYPE":"U","MEAN_ANOMALY":"79.6283","COUNTRY_CODE":"US","INCLINATION":"53.2152","MEAN_ELEMENT_THEORY":"SGP4","EPOCH":"2022-04-24T20:00:01.000224","OBJECT_NAME":"STARLINK-3732","MEAN_MOTION_DOT":"-0.00053214","APOAPSIS":"350.585","PERIAPSIS":"348.927","ELEMENT_SET_NO":"999","MEAN_MOTION_DDOT":"0.0000000000000","NORAD_CAT_ID":"52126","ARG_OF_PERICENTER":"118.7270","BSTAR":"-0.00037711000000","GP_ID":"201941966","REF_FRAME":"TEME","RCS_SIZE":"LARGE","CENTER_NAME":"EARTH"},{"DECAY_DATE":null,"REV_AT_EPOCH":"701","LAUNCH_DATE":"2022-03-19","EPHEMERIS_TYPE":"0","TLE_LINE2":"2 52127  53.2151 322.7459 0001137 118.5413  82.0537 15.73213208  7018","OBJECT_ID":"2022-029AR","ECCENTRICITY":"0.00011370","MEAN_MOTION":"15.73213208","SITE":"AFETR","PERIOD":"91.532","TIME_SYSTEM":"UTC","FILE":"3414342","TLE_LINE1":"1 52127U 22029AR  22114.83334491 -.00038989  00000-0 -27452-3 0  9999","RA_OF_ASC_NODE":"322.7459","SEMIMAJOR_AXIS":"6727.858","OBJECT_TYPE":"PAYLOAD","OBJECT_NAME":"STARLINK-3715","MEAN_ELEMENT_THEORY":"SGP4","EPOCH":"2022-04-24T20:00:01.000224","APOAPSIS":"350.487","MEAN_MOTION_DOT":"-0.00038989","CLASSIFICATION_TYPE":"U","INCLINATION":"53.2151","COUNTRY_CODE":"US","MEAN_ANOMALY":"82.0537","GP_ID":"201941952","BSTAR":"-0.00027452000000","NORAD_CAT_ID":"52127","ARG_OF_PERICENTER":"118.5413","CENTER_NAME":"EARTH","RCS_SIZE":"LARGE","REF_FRAME":"TEME","MEAN_MOTION_DDOT":"0.0000000000000","ELEMENT_SET_NO":"999","PERIAPSIS":"348.958"},{"OBJECT_NAME":"STARLINK-3661","EPOCH":"2022-04-24T20:00:01.000224","MEAN_ELEMENT_THEORY":"SGP4","APOAPSIS":"350.543","MEAN_MOTION_DOT":"-0.00029271","CLASSIFICATION_TYPE":"U","INCLINATION":"53.2150","COUNTRY_CODE":"US","MEAN_ANOMALY":"96.7881","BSTAR":"-0.00020495000000","GP_ID":"201941975","NORAD_CAT_ID":"52129","ARG_OF_PERICENTER":"104.9748","RCS_SIZE":"LARGE","CENTER_NAME":"EARTH","REF_FRAME":"TEME","ELEMENT_SET_NO":"999","MEAN_MOTION_DDOT":"0.0000000000000","PERIAPSIS":"349.029","REV_AT_EPOCH":"702","DECAY_DATE":null,"LAUNCH_DATE":"2022-03-19","EPHEMERIS_TYPE":"0","OBJECT_ID":"2022-029AT","TLE_LINE2":"2 52129  53.2150 322.7436 0001125 104.9748  96.7881 15.73190930  7022","ECCENTRICITY":"0.00011250","SITE":"AFETR","MEAN_MOTION":"15.73190930","PERIOD":"91.534","TIME_SYSTEM":"UTC","TLE_LINE1":"1 52129U 22029AT  22114.83334491 -.00029271  00000-0 -20495-3 0  9995","FILE":"3414343","RA_OF_ASC_NODE":"322.7436","SEMIMAJOR_AXIS":"6727.921","OBJECT_TYPE":"PAYLOAD"},{"EPHEMERIS_TYPE":"0","LAUNCH_DATE":"2022-03-19","DECAY_DATE":null,"REV_AT_EPOCH":"702","TLE_LINE2":"2 52131  53.2149 322.7421 0001154 115.0006  87.3309 15.73237876  7021","OBJECT_ID":"2022-029AV","ECCENTRICITY":"0.00011540","MEAN_MOTION":"15.73237876","SITE":"AFETR","PERIOD":"91.531","TIME_SYSTEM":"UTC","RA_OF_ASC_NODE":"322.7421","FILE":"3414365","TLE_LINE1":"1 52131U 22029AV  22114.83334491 -.00085221  00000-0 -60797-3 0  9994","OBJECT_TYPE":"PAYLOAD","SEMIMAJOR_AXIS":"6727.787","EPOCH":"2022-04-24T20:00:01.000224","MEAN_ELEMENT_THEORY":"SGP4","OBJECT_NAME":"STARLINK-3711","MEAN_MOTION_DOT":"-0.00085221","APOAPSIS":"350.429","CLASSIFICATION_TYPE":"U","MEAN_ANOMALY":"87.3309","COUNTRY_CODE":"US","INCLINATION":"53.2149","NORAD_CAT_ID":"52131","ARG_OF_PERICENTER":"115.0006","GP_ID":"201941957","BSTAR":"-0.00060797000000","REF_FRAME":"TEME","RCS_SIZE":"LARGE","CENTER_NAME":"EARTH","PERIAPSIS":"348.876","MEAN_MOTION_DDOT":"0.0000000000000","ELEMENT_SET_NO":"999"},{"OBJECT_NAME":"STARLINK-3718","EPOCH":"2022-04-24T20:00:01.000224","MEAN_ELEMENT_THEORY":"SGP4","APOAPSIS":"350.601","MEAN_MOTION_DOT":"-0.00018372","CLASSIFICATION_TYPE":"U","INCLINATION":"53.2150","COUNTRY_CODE":"US","MEAN_ANOMALY":"89.7270","BSTAR":"-0.00012674000000","GP_ID":"201941958","ARG_OF_PERICENTER":"111.4108","NORAD_CAT_ID":"52132","CENTER_NAME":"EARTH","RCS_SIZE":"LARGE","REF_FRAME":"TEME","MEAN_MOTION_DDOT":"0.0000000000000","ELEMENT_SET_NO":"999","PERIAPSIS":"348.886","REV_AT_EPOCH":"702","DECAY_DATE":null,"LAUNCH_DATE":"2022-03-19","EPHEMERIS_TYPE":"0","OBJECT_ID":"2022-029AW","TLE_LINE2":"2 52132  53.2150 322.7453 0001275 111.4108  89.7270 15.73205857  7023","ECCENTRICITY":"0.00012750","SITE":"AFETR","MEAN_MOTION":"15.73205857","PERIOD":"91.533","TIME_SYSTEM":"UTC","TLE_LINE1":"1 52132U 22029AW  22114.83334491 -.00018372  00000-0 -12674-3 0  9999","FILE":"3414365","RA_OF_ASC_NODE":"322.7453","SEMIMAJOR_AXIS":"6727.878","OBJECT_TYPE":"PAYLOAD"},{"RA_OF_ASC_NODE":"322.7394","TLE_LINE1":"1 52133U 22029AX  22114.83334491 -.00094128  00000-0 -67288-3 0  9994","FILE":"3414365","OBJECT_TYPE":"PAYLOAD","SEMIMAJOR_AXIS":"6727.808","PERIOD":"91.531","TIME_SYSTEM":"UTC","ECCENTRICITY":"0.00013250","SITE":"AFETR","MEAN_MOTION":"15.73230649","EPHEMERIS_TYPE":"0","LAUNCH_DATE":"2022-03-19","REV_AT_EPOCH":"702","DECAY_DATE":null,"OBJECT_ID":"2022-029AX","TLE_LINE2":"2 52133  53.2149 322.7394 0001325 112.3468  91.1346 15.73230649  7029","PERIAPSIS":"348.781","ELEMENT_SET_NO":"999","MEAN_MOTION_DDOT":"0.0000000000000","ARG_OF_PERICENTER":"112.3468","NORAD_CAT_ID":"52133","GP_ID":"201941959","BSTAR":"-0.00067288000000","REF_FRAME":"TEME","CENTER_NAME":"EARTH","RCS_SIZE":"LARGE","CLASSIFICATION_TYPE":"U","COUNTRY_CODE":"US","MEAN_ANOMALY":"91.1346","INCLINATION":"53.2149","MEAN_ELEMENT_THEORY":"SGP4","EPOCH":"2022-04-24T20:00:01.000224","OBJECT_NAME":"STARLINK-3707","MEAN_MOTION_DOT":"-0.00094128","APOAPSIS":"350.564"},{"SEMIMAJOR_AXIS":"6727.756","OBJECT_TYPE":"PAYLOAD","FILE":"3414345","TLE_LINE1":"1 52134U 22029AY  22114.83334491 -.00067931  00000-0 -48250-3 0  9995","RA_OF_ASC_NODE":"322.7419","TIME_SYSTEM":"UTC","PERIOD":"91.530","MEAN_MOTION":"15.73248714","SITE":"AFETR","ECCENTRICITY":"0.00012090","TLE_LINE2":"2 52134  53.2151 322.7419 0001209 125.4843  77.4196 15.73248714  7026","OBJECT_ID":"2022-029AY","DECAY_DATE":null,"REV_AT_EPOCH":"702","LAUNCH_DATE":"2022-03-19","EPHEMERIS_TYPE":"0","ELEMENT_SET_NO":"999","MEAN_MOTION_DDOT":"0.0000000000000","PERIAPSIS":"348.808","RCS_SIZE":"LARGE","CENTER_NAME":"EARTH","REF_FRAME":"TEME","GP_ID":"201941995","BSTAR":"-0.00048250000000","ARG_OF_PERICENTER":"125.4843","NORAD_CAT_ID":"52134","INCLINATION":"53.2151","MEAN_ANOMALY":"77.4196","COUNTRY_CODE":"US","CLASSIFICATION_TYPE":"U","APOAPSIS":"350.435","MEAN_MOTION_DOT":"-0.00067931","OBJECT_NAME":"STARLINK-3721","EPOCH":"2022-04-24T20:00:01.000224","MEAN_ELEMENT_THEORY":"SGP4"},{"OBJECT_TYPE":"PAYLOAD","SEMIMAJOR_AXIS":"6727.770","RA_OF_ASC_NODE":"322.7358","FILE":"3414366","TLE_LINE1":"1 52135U 22029AZ  22114.83334491 -.00080904  00000-0 -57650-3 0  9995","TIME_SYSTEM":"UTC","PERIOD":"91.531","MEAN_MOTION":"15.73243991","SITE":"AFETR","ECCENTRICITY":"0.00011020","TLE_LINE2":"2 52135  53.2150 322.7358 0001102 113.5755  91.6308 15.73243991  7025","OBJECT_ID":"2022-029AZ","LAUNCH_DATE":"2022-03-19","EPHEMERIS_TYPE":"0","DECAY_DATE":null,"REV_AT_EPOCH":"702","PERIAPSIS":"348.893","ELEMENT_SET_NO":"999","MEAN_MOTION_DDOT":"0.0000000000000","REF_FRAME":"TEME","CENTER_NAME":"EARTH","RCS_SIZE":"LARGE","ARG_OF_PERICENTER":"113.5755","NORAD_CAT_ID":"52135","GP_ID":"201942007","BSTAR":"-0.00057650000000","COUNTRY_CODE":"US","MEAN_ANOMALY":"91.6308","INCLINATION":"53.2150","CLASSIFICATION_TYPE":"U","MEAN_MOTION_DOT":"-0.00080904","APOAPSIS":"350.376","MEAN_ELEMENT_THEORY":"SGP4","EPOCH":"2022-04-24T20:00:01.000224","OBJECT_NAME":"STARLINK-3729"},{"INCLINATION":"53.2150","MEAN_ANOMALY":"93.0387","COUNTRY_CODE":"US","CLASSIFICATION_TYPE":"U","APOAPSIS":"350.640","MEAN_MOTION_DOT":"-0.00053774","OBJECT_NAME":"STARLINK-3720","EPOCH":"2022-04-24T20:00:01.000224","MEAN_ELEMENT_THEORY":"SGP4","MEAN_MOTION_DDOT":"0.0000000000000","ELEMENT_SET_NO":"999","PERIAPSIS":"348.784","RCS_SIZE":"LARGE","CENTER_NAME":"EARTH","REF_FRAME":"TEME","BSTAR":"-0.00038089000000","GP_ID":"201942505","NORAD_CAT_ID":"52136","ARG_OF_PERICENTER":"111.0314","MEAN_MOTION":"15.73216896","SITE":"AFETR","ECCENTRICITY":"0.00013790","TLE_LINE2":"2 52136  53.2150 322.7392 0001379 111.0314  93.0387 15.73216896  7021","OBJECT_ID":"2022-029BA","DECAY_DATE":null,"REV_AT_EPOCH":"702","EPHEMERIS_TYPE":"0","LAUNCH_DATE":"2022-03-19","SEMIMAJOR_AXIS":"6727.847","OBJECT_TYPE":"PAYLOAD","FILE":"3414366","TLE_LINE1":"1 52136U 22029BA  22114.83334491 -.00053774  00000-0 -38089-3 0  9996","RA_OF_ASC_NODE":"322.7392","TIME_SYSTEM":"UTC","PERIOD":"91.532"},{"MEAN_MOTION_DDOT":"0.0000000000000","ELEMENT_SET_NO":"999","PERIAPSIS":"348.808","GP_ID":"201942065","BSTAR":"-0.00039510000000","NORAD_CAT_ID":"52137","ARG_OF_PERICENTER":"100.8241","CENTER_NAME":"EARTH","RCS_SIZE":"LARGE","REF_FRAME":"TEME","CLASSIFICATION_TYPE":"U","INCLINATION":"53.2150","COUNTRY_CODE":"US","MEAN_ANOMALY":"104.9590","OBJECT_NAME":"STARLINK-3733","MEAN_ELEMENT_THEORY":"SGP4","EPOCH":"2022-04-24T20:00:01.000224","APOAPSIS":"350.539","MEAN_MOTION_DOT":"-0.00055775","FILE":"3414349","TLE_LINE1":"1 52137U 22029BB  22114.83334491 -.00055775  00000-0 -39510-3 0  9990","RA_OF_ASC_NODE":"322.7346","SEMIMAJOR_AXIS":"6727.808","OBJECT_TYPE":"PAYLOAD","PERIOD":"91.531","TIME_SYSTEM":"UTC","ECCENTRICITY":"0.00012860","MEAN_MOTION":"15.73230445","SITE":"AFETR","DECAY_DATE":null,"REV_AT_EPOCH":"702","LAUNCH_DATE":"2022-03-19","EPHEMERIS_TYPE":"0","TLE_LINE2":"2 52137  53.2150 322.7346 0001286 100.8241 104.9590 15.73230445  7027","OBJECT_ID":"2022-029BB"}];
